{"type":"FeatureCollection","features":[{"type":"Feature","geometry":{"type":"LineString","coordinates":[[44.37998,40.09169],[44.38024,40.09079],[44.38039,40.09019],[44.38088,40.08963],[44.38105,40.08911],[44.38157,40.08715],[44.38196,40.08662],[44.38206,40.08636],[44.38203,40.08611],[44.38198,40.08592],[44.38192,40.08577],[44.38184,40.08552],[44.38187,40.08528],[44.38183,40.08514],[44.3813,40.08462],[44.38109,40.08439],[44.38106,40.08407],[44.38117,40.08371],[44.38124,40.08353],[44.38205,40.08323],[44.38236,40.08303],[44.38251,40.08277],[44.38245,40.08237],[44.38244,40.08208],[44.38244,40.08184],[44.38263,40.08168],[44.38276,40.08151],[44.38276,40.08139],[44.38276,40.08133],[44.38235,40.08086],[44.38179,40.08018],[44.38163,40.07996],[44.38156,40.07975],[44.38175,40.07945],[44.38169,40.07914],[44.3817,40.07863],[44.38198,40.07823],[44.38223,40.07793],[44.38253,40.07753],[44.38256,40.07703],[44.38249,40.07673],[44.38192,40.07573],[44.3816,40.07507],[44.38123,40.07463],[44.38111,40.07439],[44.38104,40.07374],[44.38097,40.0731],[44.3809,40.07271],[44.38074,40.07228],[44.38026,40.07163],[44.37995,40.07116],[44.37977,40.07093],[44.37978,40.0707],[44.37992,40.07052],[44.38056,40.06989],[44.38089,40.0697],[44.38187,40.06949],[44.38338,40.06926],[44.38557,40.06949]]},"properties":{"kind":"river"}},{"type":"Feature","geometry":{"type":"LineString","coordinates":[[44.56735,40.26552],[44.56715,40.26545],[44.56646,40.2655],[44.566,40.2656],[44.56512,40.26557],[44.56469,40.26543],[44.56462,40.26501],[44.5643,40.26472],[44.564,40.26417],[44.56349,40.26318],[44.56366,40.26287],[44.56307,40.2617],[44.56306,40.26131],[44.56311,40.26094],[44.56311,40.26072],[44.56287,40.26054],[44.56251,40.26037],[44.56216,40.26032],[44.56176,40.2601],[44.56133,40.25982],[44.56081,40.25944],[44.56054,40.25903],[44.56074,40.25851],[44.56051,40.25763],[44.56032,40.2571],[44.56051,40.25664],[44.56079,40.25631],[44.56098,40.25607],[44.56142,40.2558],[44.56185,40.25534],[44.56183,40.25504],[44.56167,40.25454],[44.56114,40.25396],[44.56089,40.25368],[44.5612,40.25342],[44.56141,40.25312],[44.5615,40.25266],[44.56149,40.25207],[44.56149,40.25158],[44.56157,40.25101],[44.56166,40.25024],[44.5615,40.24983],[44.56128,40.24973],[44.56113,40.24975],[44.56072,40.24971],[44.5603,40.24927],[44.56042,40.24893],[44.5603,40.24857],[44.55995,40.24819],[44.55957,40.24805],[44.55855,40.24787],[44.55838,40.24751],[44.55794,40.24719],[44.55754,40.24708],[44.55732,40.24691],[44.55693,40.24659],[44.55639,40.24613],[44.5557,40.24581],[44.55536,40.24572],[44.55519,40.24565],[44.55508,40.24554],[44.5546,40.24497],[44.55451,40.2445],[44.55405,40.24364],[44.55346,40.24342],[44.55279,40.24327],[44.55261,40.24301],[44.55225,40.24266],[44.5518,40.24239],[44.55135,40.242],[44.55093,40.24155],[44.55037,40.2412],[44.54954,40.24103],[44.54879,40.24109],[44.54823,40.24122],[44.54785,40.24146],[44.54734,40.24174],[44.54697,40.24173],[44.54655,40.24149],[44.54612,40.24103],[44.54594,40.24089],[44.5453,40.24092],[44.54499,40.24084],[44.54482,40.24056],[44.54449,40.24048],[44.54386,40.24064],[44.54334,40.24069],[44.5427,40.24064],[44.542,40.24042],[44.54132,40.24033],[44.541,40.24029],[44.54059,40.24023]]},"properties":{"kind":"river"}},{"type":"Feature","geometry":{"type":"LineString","coordinates":[[44.48458,40.19111],[44.48488,40.19116],[44.48524,40.1912],[44.48551,40.19123],[44.4861,40.19125],[44.4867,40.19123],[44.48715,40.19112],[44.48753,40.19103],[44.48807,40.19083],[44.48831,40.19073],[44.48871,40.19053],[44.48916,40.1903],[44.48959,40.19025],[44.49032,40.19022],[44.49063,40.1902],[44.49147,40.19019],[44.4917,40.19019],[44.49216,40.19019],[44.49287,40.19009],[44.49327,40.18996],[44.49369,40.18965],[44.49388,40.18939],[44.49396,40.18925],[44.4942,40.18898],[44.49471,40.18884],[44.49505,40.18889],[44.49528,40.18907],[44.49537,40.18918],[44.49558,40.18937],[44.49592,40.18965],[44.49607,40.18978],[44.49616,40.18983],[44.49631,40.18992],[44.4965,40.18996],[44.4967,40.18995],[44.49689,40.18988],[44.49705,40.18973],[44.49712,40.18959],[44.49718,40.18939],[44.49726,40.18927],[44.49742,40.18916],[44.49791,40.18907],[44.49831,40.18911],[44.49864,40.18918],[44.49875,40.1892],[44.4992,40.18925],[44.49944,40.18928],[44.50067,40.18931],[44.50085,40.1893],[44.50101,40.18926],[44.50112,40.18919],[44.50121,40.18907],[44.50123,40.189],[44.50133,40.18867],[44.50136,40.18857],[44.50138,40.18792],[44.50119,40.18751],[44.50028,40.18683],[44.49911,40.18623],[44.49847,40.18589],[44.49838,40.18584],[44.49827,40.18575],[44.49792,40.18544],[44.49666,40.18407],[44.4963,40.18375],[44.4956,40.18318],[44.49542,40.18287],[44.49528,40.18238],[44.49559,40.18186],[44.49592,40.18144],[44.49625,40.18115],[44.49662,40.18099],[44.49706,40.18038],[44.49819,40.17889],[44.49862,40.17847],[44.49878,40.17822],[44.49886,40.17795],[44.49921,40.17729],[44.49961,40.17688],[44.4998,40.17677],[44.50018,40.17667],[44.50045,40.17658],[44.50074,40.17646],[44.50091,40.17621],[44.50094,40.17607],[44.50094,40.17587],[44.50071,40.17553],[44.50039,40.1752],[44.49991,40.17489],[44.49947,40.17461],[44.49901,40.17444],[44.49872,40.17434],[44.49838,40.17411],[44.49821,40.17395],[44.49812,40.17379],[44.49798,40.17337],[44.49804,40.17311],[44.49803,40.17292],[44.49801,40.17282],[44.49823,40.17253],[44.49836,40.17235],[44.4986,40.1722],[44.49891,40.17209],[44.49961,40.1719],[44.50026,40.17179],[44.5007,40.17154],[44.50116,40.17136],[44.50147,40.17118],[44.50211,40.17066],[44.50215,40.17039],[44.50204,40.16996],[44.50152,40.16945],[44.50087,40.16891],[44.50005,40.16844],[44.49923,40.1677],[44.49879,40.16717],[44.49824,40.16571],[44.49826,40.16538],[44.49902,40.16483],[44.49986,40.16435],[44.50063,40.16396]]},"properties":{"kind":"river"}},{"type":"Feature","geometry":{"type":"LineString","coordinates":[[44.50325,40.21628],[44.50255,40.21605],[44.50219,40.2159],[44.50135,40.2152],[44.50085,40.21465],[44.50034,40.21436],[44.49938,40.21374],[44.49855,40.21337],[44.49803,40.2132],[44.49761,40.21336],[44.49701,40.2134],[44.49604,40.21307],[44.49547,40.21289],[44.49513,40.2127],[44.49467,40.2124],[44.49454,40.21224],[44.49449,40.21212],[44.49442,40.21193],[44.49443,40.21148],[44.49442,40.21105],[44.49438,40.21072],[44.49418,40.21017],[44.49402,40.20977],[44.49383,40.20956],[44.49377,40.20947],[44.4937,40.20941],[44.49354,40.20928],[44.49344,40.20923],[44.49334,40.20918],[44.49324,40.20915],[44.49304,40.20908],[44.4927,40.20899],[44.49228,40.20891],[44.4919,40.20882],[44.49141,40.20872],[44.49097,40.20857],[44.49062,40.20842],[44.49036,40.2083],[44.49026,40.20823],[44.49019,40.20818],[44.49004,40.20809],[44.48996,40.20791],[44.48978,40.20755],[44.4898,40.20728],[44.48985,40.2071],[44.48991,40.20703],[44.48996,40.20695],[44.49032,40.20661],[44.49052,40.20635],[44.49058,40.20607],[44.49057,40.20579],[44.4905,40.20568],[44.4904,40.20561],[44.49029,40.20556],[44.48985,40.20526],[44.4892,40.20501],[44.48843,40.20472],[44.48807,40.20443],[44.48734,40.20366],[44.48661,40.20307],[44.48641,40.20287],[44.48525,40.20231],[44.48435,40.20185],[44.48407,40.20165],[44.48398,40.20151],[44.4836,40.20101],[44.48327,40.2002],[44.48309,40.19997],[44.48299,40.19962],[44.48293,40.1994],[44.48284,40.19905],[44.48291,40.19868],[44.48329,40.19825],[44.48359,40.19797],[44.48401,40.19746],[44.48412,40.19727],[44.48413,40.19709],[44.48406,40.19688],[44.48384,40.19662],[44.48357,40.19625],[44.48328,40.1959],[44.48292,40.19559],[44.48268,40.19544],[44.48235,40.19532],[44.48173,40.19503],[44.48139,40.19482],[44.48111,40.19461],[44.4809,40.19443],[44.48065,40.19407],[44.48063,40.19387],[44.48064,40.19366],[44.48078,40.1935]]},"properties":{"kind":"river"}},{"type":"Feature","geometry":{"type":"LineString","coordinates":[[44.39424,40.06001],[44.3944,40.05866],[44.3942,40.05788],[44.39438,40.05765],[44.39503,40.05747],[44.39578,40.05752],[44.39602,40.05775],[44.39603,40.05798],[44.39611,40.05812],[44.39636,40.05813],[44.39653,40.05803],[44.39648,40.05775],[44.39638,40.05744],[44.39635,40.05727],[44.39637,40.05709],[44.39654,40.05695],[44.39686,40.05693],[44.39738,40.05721],[44.39799,40.05743],[44.39822,40.0573],[44.39828,40.05714],[44.39827,40.05684],[44.39758,40.05429],[44.39726,40.05413],[44.39646,40.05448],[44.39584,40.05501],[44.39543,40.05502],[44.39509,40.05484],[44.39475,40.05402],[44.39466,40.053],[44.3948,40.05276],[44.3954,40.05259],[44.39665,40.0524],[44.3973,40.05221],[44.39791,40.05237],[44.39852,40.053],[44.39924,40.05307],[44.39962,40.05265],[44.40052,40.05183],[44.40085,40.05092],[44.40047,40.05045],[44.39983,40.05027],[44.39882,40.05042],[44.39776,40.05107],[44.39735,40.05063],[44.39713,40.05012],[44.39712,40.04983],[44.39747,40.04928],[44.39804,40.04872],[44.39855,40.04811],[44.39869,40.04792],[44.39877,40.04768],[44.3989,40.04758],[44.39909,40.04764],[44.39932,40.04767],[44.39951,40.0478],[44.39992,40.04804],[44.40016,40.04812],[44.40033,40.0481],[44.40048,40.04801],[44.4005,40.04784],[44.4003,40.04726],[44.40029,40.04689],[44.40041,40.04664],[44.40064,40.04631],[44.40077,40.04616],[44.40103,40.04601],[44.40125,40.04607],[44.40147,40.04624],[44.40195,40.0469],[44.40212,40.04724],[44.40231,40.04732],[44.40254,40.04728],[44.40279,40.04712],[44.40294,40.04683],[44.40293,40.04651],[44.40254,40.04519],[44.40258,40.04501],[44.40274,40.04489],[44.40296,40.04484],[44.40318,40.04486],[44.40371,40.04496],[44.40418,40.04491],[44.40441,40.04491],[44.40455,40.04502],[44.40467,40.04533],[44.40467,40.0456],[44.40457,40.04586],[44.40456,40.04602],[44.40476,40.04622],[44.40508,40.04631],[44.40543,40.04638],[44.40566,40.04632],[44.40593,40.04609],[44.40645,40.04588],[44.40678,40.04567],[44.407,40.04539],[44.40717,40.04485],[44.40721,40.04366],[44.40735,40.04284],[44.40737,40.04261],[44.40731,40.04247],[44.40707,40.04236],[44.40672,40.04237],[44.40619,40.04247],[44.40572,40.04241],[44.40535,40.0422],[44.40489,40.04139],[44.40482,40.041],[44.40494,40.04089],[44.4053,40.04088],[44.40664,40.04108],[44.40824,40.04125],[44.40884,40.041],[44.4092,40.04072],[44.40935,40.0406],[44.41006,40.04013],[44.41096,40.03981],[44.41202,40.03897],[44.4126,40.03889],[44.4136,40.03923],[44.414,40.03961],[44.4138,40.03999],[44.41342,40.04035],[44.41284,40.04101],[44.41256,40.04171],[44.41251,40.04217],[44.41249,40.0426],[44.41268,40.043],[44.41291,40.04324],[44.41376,40.04356],[44.41476,40.0438],[44.41548,40.04389],[44.41747,40.04355],[44.41901,40.04271],[44.41945,40.04267],[44.41981,40.04285],[44.42005,40.04331],[44.42045,40.04366],[44.4209,40.04364],[44.42159,40.04326],[44.42187,40.04282],[44.42202,40.0418],[44.42184,40.04106],[44.42125,40.04069],[44.42028,40.0406],[44.41937,40.04062],[44.41884,40.04047],[44.41836,40.03995],[44.41832,40.03983],[44.41834,40.03966],[44.41845,40.03944],[44.41867,40.03914],[44.41884,40.03895],[44.41936,40.03856],[44.42002,40.03814],[44.42051,40.03808],[44.42136,40.03824],[44.42367,40.03921],[44.42428,40.03918],[44.4252,40.03853],[44.4255,40.03862],[44.42617,40.0394],[44.42611,40.04023],[44.42557,40.04078],[44.42528,40.04137],[44.42548,40.04179],[44.42605,40.04184],[44.42704,40.04155],[44.42776,40.04182],[44.42823,40.04294],[44.42887,40.04311],[44.4295,40.04297],[44.42994,40.04236],[44.43025,40.0418],[44.43021,40.04112],[44.43052,40.04043],[44.43132,40.03953],[44.43178,40.03988],[44.43452,40.04134],[44.43611,40.04166],[44.43743,40.04229],[44.43806,40.04222],[44.43839,40.04207],[44.43931,40.0408],[44.43981,40.04007],[44.43987,40.03938],[44.43933,40.03903],[44.43876,40.03873],[44.43854,40.03846],[44.43846,40.03805],[44.43884,40.03672],[44.43918,40.0364],[44.4398,40.03643],[44.44126,40.03726],[44.44145,40.03826],[44.44154,40.03841],[44.44208,40.0386],[44.44225,40.03852],[44.44249,40.03825],[44.44297,40.03733],[44.44332,40.03702],[44.44405,40.03717],[44.44464,40.0378],[44.44469,40.03814],[44.44457,40.03852],[44.44438,40.03893],[44.44439,40.03911],[44.44463,40.0392],[44.44488,40.03912],[44.44502,40.03898],[44.44517,40.03881],[44.44529,40.03799]]},"properties":{"kind":"river"}},{"type":"Feature","geometry":{"type":"LineString","coordinates":[[44.54059,40.24023],[44.54013,40.24011],[44.54012,40.23995],[44.53987,40.23978],[44.53934,40.23971],[44.53891,40.23972],[44.53853,40.23938],[44.53802,40.23897],[44.53738,40.23869],[44.53654,40.23868],[44.53578,40.2387],[44.53553,40.23849],[44.53559,40.23783],[44.53536,40.23767],[44.53488,40.23762],[44.53439,40.23731],[44.5341,40.23701],[44.53386,40.23676],[44.53374,40.23646],[44.53368,40.2361],[44.53316,40.2358],[44.53233,40.23541],[44.53171,40.23486],[44.53141,40.2346],[44.5311,40.23438],[44.53044,40.2341],[44.52965,40.23379],[44.52904,40.23326],[44.52849,40.23261],[44.5278,40.23214],[44.52735,40.23221],[44.52672,40.23254],[44.52624,40.23283],[44.52576,40.23276],[44.52547,40.23246],[44.52529,40.23189],[44.52492,40.23153],[44.52469,40.23088],[44.52425,40.23031],[44.52372,40.23005],[44.52346,40.22992],[44.52305,40.22967],[44.52263,40.22936],[44.5223,40.22896],[44.52211,40.22872],[44.52188,40.22849],[44.52173,40.22838],[44.52133,40.22827],[44.52104,40.22831],[44.52061,40.22871],[44.52012,40.22885],[44.51914,40.22914],[44.51872,40.22927],[44.518,40.22944],[44.51749,40.22965],[44.5173,40.22988],[44.51696,40.23002],[44.51657,40.23003],[44.51628,40.22993],[44.51568,40.22969],[44.51474,40.22965],[44.51427,40.22941],[44.51388,40.22881],[44.51364,40.22856]]},"properties":{"kind":"river"}},{"type":"Feature","geometry":{"type":"LineString","coordinates":[[44.38557,40.06949],[44.38673,40.06959],[44.38718,40.06965],[44.38761,40.06962],[44.38787,40.06955],[44.38826,40.0686],[44.38856,40.06791],[44.38877,40.0677],[44.38903,40.06745],[44.39032,40.06663],[44.39078,40.06634],[44.39093,40.06614],[44.39089,40.06577],[44.39056,40.06534],[44.39049,40.06515],[44.39075,40.06479],[44.39104,40.06465],[44.39178,40.06454],[44.39229,40.06431],[44.39238,40.06412],[44.39232,40.06381],[44.39188,40.06335],[44.39159,40.06292],[44.39162,40.06254],[44.39171,40.06236],[44.39191,40.06226],[44.39401,40.062],[44.39428,40.06192],[44.39438,40.0618],[44.39414,40.06128],[44.3942,40.06084],[44.39418,40.06033],[44.39424,40.06001]]},"properties":{"kind":"river"}},{"type":"Feature","geometry":{"type":"LineString","coordinates":[[44.4721,40.15525],[44.47217,40.15516],[44.47226,40.15486],[44.47228,40.1544],[44.47196,40.15389],[44.47154,40.15355],[44.47033,40.15261],[44.46948,40.15213],[44.46936,40.15165],[44.46936,40.15083],[44.46942,40.15049],[44.46946,40.15014],[44.46952,40.14983],[44.46949,40.14969],[44.46939,40.14959],[44.46918,40.14951],[44.46884,40.14947],[44.46805,40.14955],[44.46749,40.14931],[44.46688,40.14913],[44.46573,40.14896],[44.46506,40.14897],[44.46398,40.14916],[44.46287,40.14946],[44.46205,40.14996],[44.46159,40.1505],[44.46127,40.15073],[44.46086,40.15089],[44.46007,40.15113],[44.45917,40.15136],[44.45867,40.15148],[44.45797,40.15171],[44.45678,40.15239],[44.45647,40.15274],[44.45598,40.15357],[44.45525,40.15441],[44.45459,40.15544],[44.45438,40.1556],[44.45393,40.15566],[44.45322,40.1556],[44.45233,40.15536],[44.45171,40.15525],[44.45126,40.15527],[44.45081,40.15538],[44.44983,40.15596],[44.44918,40.15641],[44.44832,40.1566],[44.44782,40.15659],[44.44735,40.15652],[44.44681,40.15633],[44.44551,40.15533],[44.44482,40.15497]]},"properties":{"kind":"river"}},{"type":"Feature","geometry":{"type":"Polygon","coordinates":[[[44.5036,40.21727],[44.50375,40.21711],[44.50388,40.217],[44.50402,40.2169],[44.50413,40.21681],[44.50429,40.2169],[44.50435,40.21685],[44.50446,40.21678],[44.50457,40.21686],[44.50489,40.21661],[44.505,40.21675],[44.50507,40.21681],[44.50514,40.21683],[44.50518,40.21688],[44.50518,40.21695],[44.50514,40.217],[44.50532,40.21716],[44.50533,40.21728],[44.50549,40.21739],[44.50566,40.21751],[44.5058,40.21762],[44.50593,40.21783],[44.50602,40.21808],[44.50621,40.21832],[44.50622,40.21846],[44.5064,40.21863],[44.50648,40.21904],[44.50649,40.21936],[44.50669,40.21993],[44.5071,40.22033],[44.50737,40.22065],[44.5078,40.22121],[44.50816,40.22159],[44.50893,40.22201],[44.50945,40.22221],[44.5099,40.22222],[44.5103,40.2222],[44.51075,40.22205],[44.51115,40.2219],[44.51146,40.22184],[44.51171,40.22186],[44.5119,40.22197],[44.51229,40.22212],[44.5125,40.22215],[44.51262,40.22217],[44.51272,40.2222],[44.51281,40.22228],[44.51286,40.22234],[44.51296,40.22248],[44.513,40.22252],[44.51317,40.22279],[44.51321,40.22289],[44.51323,40.22293],[44.51325,40.22296],[44.51319,40.22298],[44.51312,40.22291],[44.51307,40.22279],[44.51299,40.22268],[44.51292,40.22257],[44.51288,40.22252],[44.51281,40.22245],[44.51277,40.22243],[44.51272,40.2224],[44.51265,40.22237],[44.51259,40.22235],[44.51253,40.22233],[44.5125,40.22234],[44.51248,40.22236],[44.51248,40.22239],[44.51252,40.22243],[44.51288,40.22304],[44.51318,40.22327],[44.51322,40.22336],[44.513,40.2233],[44.51288,40.22315],[44.51278,40.22307],[44.51268,40.22282],[44.51235,40.22248],[44.5122,40.22235],[44.51201,40.2223],[44.51183,40.22229],[44.51158,40.22238],[44.51131,40.22248],[44.511,40.2225],[44.51034,40.22254],[44.50984,40.22258],[44.50914,40.22244],[44.50881,40.22231],[44.50844,40.22206],[44.50778,40.22166],[44.50752,40.2214],[44.50674,40.22039],[44.50636,40.21998],[44.5062,40.21969],[44.506,40.21923],[44.50599,40.21906],[44.50558,40.21862],[44.50546,40.21839],[44.50516,40.21809],[44.50499,40.21799],[44.50479,40.21792],[44.50447,40.21781],[44.5036,40.21727]],[[44.51068,40.22228],[44.51069,40.22229],[44.51123,40.22228],[44.5119,40.22209],[44.51172,40.22196],[44.51136,40.22201],[44.51101,40.2221],[44.51068,40.22228]]]},"properties":{"kind":"water"}},{"type":"Feature","geometry":{"type":"LineString","coordinates":[[44.44482,40.15497],[44.4447,40.15491],[44.44227,40.15371],[44.44204,40.15351],[44.4412,40.15253],[44.44089,40.15222],[44.43908,40.15108],[44.43853,40.1505],[44.43823,40.15007],[44.43792,40.1495],[44.43784,40.14921],[44.43762,40.14792],[44.43735,40.14754],[44.43696,40.14666],[44.43639,40.14613],[44.43571,40.14559],[44.43502,40.14521],[44.43454,40.14502],[44.43392,40.14495],[44.43365,40.14486],[44.43339,40.1447],[44.4329,40.14436],[44.43246,40.14398],[44.43236,40.14391],[44.43169,40.14345],[44.43123,40.14316],[44.43075,40.14294],[44.42926,40.14232],[44.42829,40.14153],[44.42777,40.14074],[44.42748,40.14021],[44.42727,40.13991],[44.42678,40.13957],[44.42641,40.13939],[44.42597,40.13931],[44.4249,40.13914],[44.42432,40.13901],[44.42375,40.1388],[44.42313,40.138],[44.42279,40.1374],[44.42293,40.1372],[44.4228,40.13679],[44.4225,40.1365],[44.42146,40.13549],[44.42074,40.13499],[44.42022,40.13459],[44.42001,40.13442],[44.41982,40.1341],[44.41946,40.13322],[44.41915,40.13244],[44.41895,40.13188],[44.41865,40.13111],[44.41834,40.13047],[44.41785,40.1297],[44.41766,40.1292],[44.4174,40.12888],[44.41712,40.12865],[44.41664,40.1284],[44.41615,40.12822],[44.41549,40.12811],[44.41512,40.12806],[44.41489,40.1281],[44.4145,40.1281],[44.4141,40.12809],[44.41375,40.12806],[44.41332,40.12797],[44.41319,40.12792],[44.41305,40.12786],[44.41296,40.12779],[44.41275,40.12761],[44.41259,40.12747],[44.41245,40.12733],[44.41226,40.12712],[44.41183,40.12679],[44.41097,40.12627],[44.41015,40.12588],[44.40877,40.12484],[44.40766,40.12341],[44.40712,40.12243],[44.40694,40.12171],[44.40615,40.12071],[44.40609,40.12066],[44.40602,40.12061],[44.40459,40.11938],[44.40372,40.11822],[44.40248,40.11767],[44.40167,40.11698],[44.40069,40.11607],[44.40012,40.11554],[44.39934,40.11492],[44.39857,40.11427],[44.39761,40.11342],[44.39666,40.11239],[44.39591,40.11181],[44.39537,40.11124],[44.39479,40.11062],[44.39406,40.1103],[44.39311,40.1103],[44.39269,40.1103],[44.39169,40.11018],[44.39046,40.11025],[44.38926,40.11045],[44.38864,40.11072],[44.38828,40.11086],[44.38791,40.11087],[44.38773,40.11082]]},"properties":{"kind":"river"}},{"type":"Feature","geometry":{"type":"LineString","coordinates":[[44.38773,40.11082],[44.38742,40.11074],[44.38721,40.11061],[44.38726,40.11034],[44.38682,40.10979],[44.38592,40.10915],[44.38496,40.10799]]},"properties":{"kind":"river"}},{"type":"Feature","geometry":{"type":"LineString","coordinates":[[44.38496,40.10799],[44.38438,40.10748],[44.38222,40.10645],[44.38107,40.10554],[44.38078,40.10511],[44.37921,40.10373],[44.37879,40.10274],[44.37767,40.10113],[44.37785,40.10043],[44.378,40.0994],[44.37792,40.09836],[44.37769,40.09782],[44.37722,40.09722],[44.37758,40.09642],[44.37842,40.096],[44.37909,40.09546],[44.37949,40.09468],[44.38011,40.0935],[44.38021,40.09334],[44.38024,40.09287],[44.38018,40.09252],[44.38001,40.09215],[44.37998,40.09169]]},"properties":{"kind":"river"}},{"type":"Feature","geometry":{"type":"LineString","coordinates":[[44.51364,40.22856],[44.51334,40.22788],[44.5132,40.2277],[44.51296,40.22751],[44.51277,40.22724],[44.51264,40.22681],[44.51251,40.22622],[44.5128,40.22558],[44.51312,40.22502],[44.51327,40.22474],[44.5135,40.22447],[44.5136,40.22411],[44.5136,40.2237],[44.51345,40.22347],[44.51301,40.22324],[44.51283,40.22302],[44.51255,40.22255],[44.51249,40.22244],[44.51229,40.2223],[44.51207,40.22214],[44.51126,40.22236],[44.51083,40.22236],[44.50972,40.22239],[44.50882,40.22212],[44.50797,40.22155],[44.50662,40.21996],[44.50618,40.21868],[44.50435,40.21685]]},"properties":{"kind":"river"}},{"type":"Feature","geometry":{"type":"LineString","coordinates":[[44.50405,40.21659],[44.50395,40.21652],[44.50344,40.21635],[44.50325,40.21628]]},"properties":{"kind":"river"}},{"type":"Feature","geometry":{"type":"LineString","coordinates":[[44.49445,40.15799],[44.49304,40.15863],[44.4923,40.15907],[44.49197,40.1592],[44.49063,40.15942],[44.48943,40.15947],[44.48921,40.15948],[44.48776,40.15964],[44.48741,40.15968],[44.48698,40.15988],[44.48673,40.16015],[44.48663,40.16033],[44.48663,40.16061],[44.48673,40.16076],[44.4871,40.16101],[44.48904,40.16255],[44.48927,40.1628],[44.4894,40.1632],[44.48942,40.16385],[44.48934,40.16419],[44.48921,40.16463],[44.48873,40.1652],[44.48801,40.16573],[44.48722,40.16607],[44.48671,40.16622],[44.48647,40.16623],[44.48618,40.16624],[44.48553,40.16608],[44.485,40.16576],[44.48428,40.16494],[44.48353,40.16404],[44.48216,40.16157],[44.48096,40.15978],[44.47909,40.15933],[44.47706,40.15891],[44.47237,40.15708]]},"properties":{"kind":"river"}},{"type":"Feature","geometry":{"type":"Polygon","coordinates":[[[44.472,40.15716],[44.47237,40.15708],[44.47485,40.15634],[44.47501,40.15639],[44.47518,40.15657],[44.47521,40.15676],[44.47558,40.15723],[44.47564,40.15735],[44.4757,40.15743],[44.47585,40.15754],[44.47597,40.15765],[44.47604,40.15773],[44.47624,40.15776],[44.47644,40.15784],[44.47667,40.15783],[44.47818,40.15779],[44.4784,40.15778],[44.47851,40.15776],[44.47861,40.15771],[44.47874,40.15768],[44.47884,40.1576],[44.47897,40.15758],[44.47904,40.15751],[44.47916,40.15744],[44.47933,40.15743],[44.47944,40.15742],[44.47953,40.15745],[44.47963,40.15746],[44.47988,40.15751],[44.48032,40.15769],[44.48044,40.15786],[44.48045,40.15792],[44.48049,40.15796],[44.48055,40.15798],[44.48058,40.15812],[44.48064,40.15818],[44.48079,40.15828],[44.48094,40.15848],[44.48105,40.15856],[44.48117,40.15862],[44.48148,40.15891],[44.48159,40.15906],[44.48165,40.15909],[44.48165,40.1592],[44.48186,40.15948],[44.48194,40.15964],[44.48219,40.15996],[44.48221,40.16007],[44.48245,40.16053],[44.48261,40.16076],[44.4829,40.16142],[44.48304,40.1619],[44.48312,40.16219],[44.48321,40.16237],[44.48331,40.1626],[44.48359,40.16342],[44.48378,40.16378],[44.48402,40.16412],[44.48454,40.16457],[44.48489,40.1651],[44.48559,40.16581],[44.48624,40.16602],[44.48673,40.16596],[44.48715,40.16584],[44.48748,40.16573],[44.48764,40.16574],[44.48786,40.1656],[44.48841,40.16524],[44.48856,40.16508],[44.48873,40.1652],[44.48883,40.16529],[44.4888,40.16539],[44.48855,40.16569],[44.48817,40.16598],[44.48772,40.16625],[44.48737,40.16634],[44.48672,40.16651],[44.48627,40.16649],[44.48595,40.16646],[44.48527,40.16626],[44.48477,40.16606],[44.48456,40.16585],[44.48447,40.16581],[44.48428,40.16564],[44.48402,40.16537],[44.48378,40.16507],[44.4835,40.16462],[44.48332,40.16433],[44.48311,40.16419],[44.48284,40.16376],[44.48264,40.16345],[44.48251,40.16329],[44.48228,40.16311],[44.48208,40.16304],[44.48201,40.16304],[44.48185,40.16303],[44.48164,40.16305],[44.48131,40.16313],[44.48101,40.16329],[44.48072,40.16341],[44.48055,40.16347],[44.48003,40.1636],[44.47985,40.16361],[44.47922,40.16354],[44.47854,40.16347],[44.47775,40.16339],[44.47729,40.16334],[44.477,40.16329],[44.47678,40.1632],[44.47645,40.16303],[44.47617,40.1629],[44.47587,40.16276],[44.47574,40.1627],[44.47536,40.16242],[44.47493,40.16209],[44.47472,40.16193],[44.4745,40.16177],[44.47337,40.16122],[44.47322,40.16112],[44.47314,40.16106],[44.47308,40.16097],[44.47305,40.16089],[44.47302,40.16073],[44.47298,40.16041],[44.47297,40.16008],[44.47303,40.15946],[44.473,40.15932],[44.47256,40.1582],[44.47212,40.15737],[44.472,40.15716]]]},"properties":{"kind":"water"}},{"type":"Feature","geometry":{"type":"LineString","coordinates":[[44.48078,40.1935],[44.48098,40.19328],[44.48107,40.19315],[44.48155,40.19262],[44.48184,40.1923],[44.48218,40.1918],[44.4825,40.19145],[44.48265,40.19128],[44.4829,40.19106],[44.48299,40.19097],[44.48314,40.19093],[44.48353,40.19095],[44.48443,40.19108]]},"properties":{"kind":"river"}},{"type":"Feature","geometry":{"type":"LineString","coordinates":[[44.50063,40.16396],[44.50074,40.16387],[44.5009,40.16372],[44.50092,40.1636],[44.50088,40.16341],[44.50073,40.16321],[44.50059,40.1628],[44.50042,40.16262],[44.50006,40.16232],[44.4996,40.1619],[44.49938,40.16172],[44.49916,40.16108],[44.49883,40.16039],[44.49859,40.15975],[44.49839,40.15924],[44.49829,40.15905],[44.49823,40.15889],[44.49798,40.15864],[44.49766,40.15837],[44.49718,40.15814],[44.49649,40.15802],[44.49445,40.15799]]},"properties":{"kind":"river"}}]}